0 BIRD 2
1 26959U 01049C   13282.50537882  .00002751  00000-0  12981-3 0  2700
2 26959 097.8457 147.6198 0015125 070.2837 338.0873 15.20288149660611
0 BIRD 2
1 26959U 01049C   13282.84985639  .00003044  00000-0  14325-3 0  2715
2 26959 097.8456 147.9781 0015054 069.0877 063.4394 15.20291833660668
0 BIRD 2
1 26959U 01049C   13283.18266017  .00003373  00000-0  15832-3 0  2725
2 26959 097.8458 148.3249 0015089 068.5533 084.2854 15.20295764660710
0 BIRD 2
1 26959U 01049C   13283.37145694  .00003896  00000-0  18231-3 0  2730
2 26959 097.8458 148.5210 0015078 067.3184 038.1722 15.20299629660746
0 BIRD 2
1 26959U 01049C   13283.69454131  .00004276  00000-0  19969-3 0  2747
2 26959 097.8456 148.8572 0014981 066.5195 006.1307 15.20304283660795
0 BIRD 2
1 26959U 01049C   13283.83644176  .00004334  00000-0  20236-3 0  2758
2 26959 097.8456 149.0047 0014970 065.9544 062.8418 15.20305895660819
0 BIRD 2
1 26959U 01049C   13284.16004256  .00004662  00000-0  21738-3 0  2767
2 26959 097.8457 149.3418 0015061 064.9618 033.8252 15.20310640660861
0 BIRD 2
1 26959U 01049C   13284.49259413  .00004884  00000-0  22751-3 0  2773
2 26959 097.8461 149.6878 0015099 063.7419 053.9907 15.20314560660917
0 BIRD 2
1 26959U 01049C   13285.53671111  .00004689  00000-0  21851-3 0  2809
2 26959 097.8458 150.7746 0014958 060.7894 007.9351 15.20323453661078
0 BIRD 2
1 26959U 01049C   13285.86428390  .00004453  00000-0  20768-3 0  2810
2 26959 097.8456 151.1158 0015045 059.3757 001.0736 15.20325540661125
0 BIRD 2
1 26959U 01049C   13286.20935354  .00004145  00000-0  19357-3 0  2823
2 26959 097.8458 151.4752 0014938 058.2245 089.6525 15.20326998661171
0 BIRD 2
1 26959U 01049C   13286.58282645  .00004052  00000-0  18929-3 0  2834
2 26959 097.8458 151.8639 0014851 057.3546 333.3157 15.20329716661235
0 BIRD 2
1 26959U 01049C   13286.86397336  .00003966  00000-0  18534-3 0  2845
2 26959 097.8459 152.1565 0014891 056.5644 071.9045 15.20331790661272
0 BIRD 2
1 26959U 01049C   13287.19672054  .00003846  00000-0  17983-3 0  2850
2 26959 097.8461 152.5025 0014879 055.4302 093.0779 15.20333968661329
0 BIRD 2
1 26959U 01049C   13287.57924353  .00003997  00000-0  18674-3 0  2860
2 26959 097.8462 152.9007 0014818 054.1243 026.6906 15.20337642661380
0 BIRD 2
1 26959U 01049C   13287.90397142  .00004081  00000-0  19058-3 0  2870
2 26959 097.8461 153.2385 0014785 052.9595 004.0415 15.20340793661433
0 BIRD 2
1 26959U 01049C   13288.24462420  .00004171  00000-0  19468-3 0  2886
2 26959 097.8462 153.5930 0014797 052.3559 067.9423 15.20344176661481
0 BIRD 2
1 26959U 01049C   13288.56219764  .00004314  00000-0  20124-3 0  2893
2 26959 097.8460 153.9232 0014740 051.5192 005.8399 15.20347534661530
0 BIRD 2
1 26959U 01049C   13288.89832462  .00004499  00000-0  20969-3 0  2908
2 26959 097.8459 154.2728 0014699 050.1786 045.7312 15.20351558661583
0 BIRD 2
1 26959U 01049C   13289.22959105  .00004710  00000-0  21929-3 0  2914
2 26959 097.8457 154.6173 0014697 049.3820 058.4995 15.20355870661631
0 BIRD 2
1 26959U 01049C   13289.55506400  .00005028  00000-0  23386-3 0  2929
2 26959 097.8455 154.9558 0014717 048.3054 039.8626 15.20360600661686
0 BIRD 2
1 26959U 01049C   13289.89061118  .00005164  00000-0  24004-3 0  2938
2 26959 097.8453 155.3053 0014623 047.3088 076.2544 15.20364798661733
0 BIRD 2
1 26959U 01049C   13290.22276299  .00005145  00000-0  23914-3 0  2944
2 26959 097.8453 155.6508 0014653 046.0399 094.3449 15.20368026661783
0 BIRD 2
1 26959U 01049C   13290.41364604  .00005219  00000-0  24254-3 0  2954
2 26959 097.8452 155.8492 0014627 045.5773 058.9128 15.20370180661815
0 BIRD 2
1 26959U 01049C   13290.73732541  .00005274  00000-0  24500-3 0  2964
2 26959 097.8452 156.1862 0014588 044.7095 030.2706 15.20374014661864
0 BIRD 2
1 26959U 01049C   13290.87899878  .00005253  00000-0  24405-3 0  2978
2 26959 097.8452 156.3338 0014578 044.2463 085.6709 15.20375396661880
0 BIRD 2
1 26959U 01049C   13291.21122926  .00005212  00000-0  24217-3 0  2987
2 26959 097.8451 156.6792 0014595 042.7425 104.4393 15.20378662661930
0 BIRD 2
1 26959U 01049C   13291.58479098  .00005195  00000-0  24132-3 0  2999
2 26959 097.8450 157.0677 0014654 041.2404 349.2884 15.20382425661995
0 BIRD 2
1 26959U 01049C   13291.87752315  .00005080  00000-0  23608-3 0  3000
2 26959 097.8449 157.3724 0014643 040.2733 151.4765 15.20385007662037
0 BIRD 2
1 26959U 01049C   13292.19879781  .00004985  00000-0  23170-3 0  3011
2 26959 097.8449 157.7065 0014601 039.3152 109.7846 15.20387894662084
0 BIRD 2
1 26959U 01049C   13292.57659317  .00004934  00000-0  22937-3 0  3029
2 26959 097.8449 158.0996 0014532 038.0371 017.5808 15.20391410662143
0 BIRD 2
1 26959U 01049C   13292.90589358  .00004883  00000-0  22701-3 0  3036
2 26959 097.8449 158.4423 0014558 037.0033 019.8733 15.20394544662192
0 BIRD 2
1 26959U 01049C   13293.18668003  .00004831  00000-0  22460-3 0  3048
2 26959 097.8448 158.7342 0014514 036.0236 116.7454 15.20397158662236
0 BIRD 2
1 26959U 01049C   13293.56913980  .00005002  00000-0  23241-3 0  3057
2 26959 097.8452 159.1322 0014360 035.0900 049.7277 15.20401568662295
0 BIRD 2
1 26959U 01049C   13293.89305822  .00004982  00000-0  23147-3 0  3065
2 26959 097.8451 159.4693 0014342 034.0274 022.6210 15.20404738662346
0 BIRD 2
1 26959U 01049C   13294.23313738  .00004909  00000-0  22812-3 0  3077
2 26959 097.8449 159.8230 0014313 032.8556 084.0252 15.20407747662397
0 BIRD 2
1 26959U 01049C   13294.55672638  .00004849  00000-0  22534-3 0  3084
2 26959 097.8449 160.1599 0014286 031.8625 055.0527 15.20410567662448
0 BIRD 2
1 26959U 01049C   13294.89402133  .00004736  00000-0  22017-3 0  3094
2 26959 097.8446 160.5106 0014286 030.6850 101.2409 15.20413455662497
0 BIRD 2
1 26959U 01049C   13295.22463740  .00004595  00000-0  21371-3 0  3100
2 26959 097.8444 160.8546 0014268 029.5944 110.8096 15.20415816662544
0 BIRD 2
1 26959U 01049C   13295.54408756  .00004587  00000-0  21331-3 0  3119
2 26959 097.8442 161.1869 0014206 028.5670 059.2426 15.20418686662597
0 BIRD 2
1 26959U 01049C   13295.89291667  .00004451  00000-0  20707-3 0  3125
2 26959 097.8440 161.5496 0014247 027.4497 168.4724 15.20421419662643
0 BIRD 2
1 26959U 01049C   13296.21318331  .00004336  00000-0  20182-3 0  3130
2 26959 097.8438 161.8828 0014180 026.4962 121.3024 15.20423663662693
